SALSAT                  
1 46495U 20068K   24177.47356879  .00005814  00000+0  33016-3 0  9997
2 46495  97.8170 136.9740 0011820 287.6857  72.3083 15.13277875205564
UVSQ-SAT                
1 47438U 21006AB  24177.56729014  .00052065  00000+0  95771-3 0  9999
2 47438  97.3244 238.1713 0007997 172.8468 187.2898 15.49004673190035
LEDSAT                  
1 49069U 21073D   24177.19158623  .00014161  00000+0  56617-3 0  9997
2 49069  97.4369 248.2701 0017943 252.3835 107.5444 15.25067161157679
XW-3 (CAS-9)            
1 50466U 21131B   24177.53536901  .00000746  00000+0  25266-3 0  9992
2 50466  98.5286 262.5655 0005435 101.6328 258.5470 14.39678016131203
TEVEL-3                 
1 50988U 22002E   24177.41354296  .00191077  00000+0  14664-2 0  9998
2 50988  97.3737 253.7353 0004694 238.0853 121.9954 15.71485504136346
TEVEL-8                 
1 50989U 22002F   24177.45690869  .00194951  00000+0  15106-2 0  9998
2 50989  97.3766 253.8731 0004621 239.0363 121.0446 15.71243752136341
TEVEL-5                 
1 50998U 22002Q   24177.47472259  .00366145  00000+0  17823-2 0  9995
2 50998  97.3690 255.4052 0007927 251.8166 108.2239 15.81402463136463
TEVEL-6                 
1 50999U 22002R   24177.55173603  .00343046  00000+0  17129-2 0  9990
2 50999  97.3698 255.4337 0007332 241.8180 118.2348 15.80909262136474
TEVEL-1                 
1 51013U 22002AF  24177.57462850  .00211425  00000+0  16372-2 0  9999
2 51013  97.3734 253.7496 0004988 238.6472 121.4303 15.71209250136367
TEVEL-7                 
1 51062U 22002CG  24177.56797112  .00214404  00000+0  16338-2 0  9996
2 51062  97.3747 253.9705 0005015 237.8514 122.2263 15.71585598136366
TEVEL-4                 
1 51063U 22002CH  24177.55563580  .00203991  00000+0  16127-2 0  9991
2 51063  97.3750 253.8271 0004859 238.9840 121.0946 15.70733219136355
TEVEL-2                 
1 51069U 22002CP  24177.47415077  .00200399  00000+0  15318-2 0  9995
2 51069  97.3733 253.7677 0004819 237.9536 122.1259 15.71553503136354
GREENCUBE               
1 53106U 22080B   24174.10442972 -.00000003  00000+0  00000+0 0  9996
2 53106  70.1321 190.8128 0007590 106.1483 254.0012  6.42557669 45580
KAI-1 (RS26S)           
1 53378U 22096J   24177.53449610  .00146264  00000+0  10440-2 0  9991
2 53378  97.3941  96.9678 0005220 122.6902 237.4866 15.73333516105545
SIREN (RS30S)           
1 53384U 22096Q   24176.82108392  .00550491  13392-3  11293-2 0  9998
2 53384  97.3772  99.0247 0009874 140.2990 219.9012 15.99264438105623
CAS-5A (FO-118)         
1 54684U 22167C   24177.56938395  .00027112  00000+0  91450-3 0  9998
2 54684  97.6068 322.5975 0010742 119.4745 240.7569 15.30630416 85581
STRATOSAT-TK 1 (RS52S)  
1 57167U 23091B   24177.55594781  .00014698  00000+0  84086-3 0  9992
2 57167  97.6102 230.6041 0016629  93.7627 266.5506 15.12644286 54825
UMKA 1 (RS40S)          
1 57172U 23091G   24177.56195821  .00006372  00000+0  42038-3 0  9992
2 57172  97.6104 229.5227 0018208  94.2783 266.0526 15.07672333 54757
CUBESX-HSE 3 (RS42S)    
1 57178U 23091N   24177.57637355  .00007881  00000+0  49939-3 0  9995
2 57178  97.6136 229.9838 0018630  89.1385 271.1978 15.09074188 54776
MONITOR-4 (RS57S)       
1 57182U 23091S   24177.56657325  .00008054  00000+0  51687-3 0  9994
2 57182  97.6126 229.7880 0018965  90.0811 270.2591 15.08594189 54768
MONITOR-2 (RS39S)       
1 57184U 23091U   24177.59155884  .00004084  00000+0  27058-3 0  9996
2 57184  97.6136 229.9330 0015804  84.5349 275.7681 15.07766295 54775
SVYATOBOR 1 (RS60S)     
1 57187U 23091X   24177.60549292  .00006773  00000+0  42733-3 0  9995
2 57187  97.6140 230.3814 0015239  82.4376 277.8583 15.09331469 54806
VIZARD-METEO (RS38S)    
1 57189U 23091Z   24177.55332612  .00008605  00000+0  52138-3 0  9993
2 57189  97.6133 230.7222 0013911  80.6685 279.6117 15.10743721 54820
NANOZOND 1 (RS49S)      
1 57190U 23091AA  24177.54103762  .00012862  00000+0  72363-3 0  9998
2 57190  97.6106 231.2310 0012334  86.0087 274.2554 15.13327868 54863
POLYTECH-UNIVERSE 3 (R*)
1 57191U 23091AB  24177.59648154  .00004775  00000+0  31539-3 0  9997
2 57191  97.6103 229.6186 0021358  99.6015 260.7627 15.07705883 54760
UTMN 2 (RS27S)          
1 57203U 23091AP  24177.61319063  .00007734  00000+0  47546-3 0  9991
2 57203  97.6131 230.6403 0014382  80.6405 279.6450 15.10247310 54821
ARCCUBE 1 (RS25S)       
1 57205U 23091AR  24177.57860076  .00015113  00000+0  82295-3 0  9993
2 57205  97.6071 231.3866 0012229  87.1155 273.1475 15.14459733 54889
KUZGTU 1 (RS47S)        
1 57217U 23091AV  24177.51945472  .00007082  00000+0  45098-3 0  9990
2 57217  97.6113 229.7890 0018718  90.5729 269.7644 15.08929240 54765
HADES-D (SO-121)        
1 58567U 23174CY  24177.16610003  .00044895  00000+0  15136-2 0  9993
2 58567  97.4505 252.9204 0013196 195.5322 164.5515 15.30503895 35008
